{"type": "FeatureCollection", "features": [ {"type": "Feature", "properties": {"norad_id": 66584, "name": "STARLINK-35939", "group": "last-30-days", "lat": -42.047504574248364, "lon": -60.97826813117973, "alt_km": 422.17908250014716, "timestamp": "2025-12-25T22:42:15.706817+00:00", "meta": {"OBJECT_NAME": "STARLINK-35939", "OBJECT_ID": "2025-268AD", "EPOCH": "2025-12-25T18:00:02.000160", "MEAN_MOTION": 15.49939135, "ECCENTRICITY": 0.0001009, "INCLINATION": 43.0006, "RA_OF_ASC_NODE": 44.7351, "ARG_OF_PERICENTER": 287.3702, "MEAN_ANOMALY": 317.2724, "EPHEMERIS_TYPE": 0, "CLASSIFICATION_TYPE": "U", "NORAD_CAT_ID": 66584, "ELEMENT_SET_NO": 999, "REV_AT_EPOCH": 610, "BSTAR": -0.040786, "MEAN_MOTION_DOT": -0.02078906, "MEAN_MOTION_DDOT": 0}, "tle": {"line1": "1 66584U 25268AD  25359.75002315 -.02078906  00000+0 -40786-1 0  9998", "line2": "2 66584  43.0006  44.7351 0001009 287.3702 317.2724 15.49939135  6109"}}, "geometry": {"type": "Point", "coordinates": [-60.97826813117973, -42.047504574248364]}}, {"type": "Feature", "properties": {"norad_id": 66585, "name": "STARLINK-35963", "group": "last-30-days", "lat": 39.04211158224872, "lon": 163.45545985125878, "alt_km": 453.58112003346014, "timestamp": "2025-12-25T22:42:15.706828+00:00", "meta": {"OBJECT_NAME": "STARLINK-35963", "OBJECT_ID": "2025-268AE", "EPOCH": "2025-12-25T18:00:02.000160", "MEAN_MOTION": 15.36656713, "ECCENTRICITY": 0.0001614, "INCLINATION": 43.0001, "RA_OF_ASC_NODE": 45.0715, "ARG_OF_PERICENTER": 283.475, "MEAN_ANOMALY": 183.7941, "EPHEMERIS_TYPE": 0, "CLASSIFICATION_TYPE": "U", "NORAD_CAT_ID": 66585, "ELEMENT_SET_NO": 999, "REV_AT_EPOCH": 610, "BSTAR": -0.061957, "MEAN_MOTION_DOT": -0.0201471, "MEAN_MOTION_DDOT": 0}, "tle": {"line1": "1 66585U 25268AE  25359.75002315 -.02014710  00000+0 -61957-1 0  9995", "line2": "2 66585  43.0001  45.0715 0001614 283.4750 183.7941 15.36656713  6106"}}, "geometry": {"type": "Point", "coordinates": [163.45545985125878, 39.04211158224872]}}, {"type": "Feature", "properties": {"norad_id": 66586, "name": "TJS-21", "group": "last-30-days", "lat": 62.517943734006664, "lon": -94.69571244862276, "alt_km": 37580.506410006514, "timestamp": "2025-12-25T22:42:15.706841+00:00", "meta": {"OBJECT_NAME": "TJS-21", "OBJECT_ID": "2025-269A", "EPOCH": "2025-12-18T16:58:10.473888", "MEAN_MOTION": 2.00580748, "ECCENTRICITY": 0.6806869, "INCLINATION": 63.2733, "RA_OF_ASC_NODE": 161.7218, "ARG_OF_PERICENTER": 269.7428, "MEAN_ANOMALY": 18.6663, "EPHEMERIS_TYPE": 0, "CLASSIFICATION_TYPE": "U", "NORAD_CAT_ID": 66586, "ELEMENT_SET_NO": 999, "REV_AT_EPOCH": 55, "BSTAR": -0.059507049, "MEAN_MOTION_DOT": 1.084e-05, "MEAN_MOTION_DDOT": 0}, "tle": {"line1": "1 66586U 25269A   25352.70706567  .00001084  00000+0 -59507-1 0  9990", "line2": "2 66586  63.2733 161.7218 6806869 269.7428  18.6663  2.00580748   558"}}, "geometry": {"type": "Point", "coordinates": [-94.69571244862276, 62.517943734006664]}}, {"type": "Feature", "properties": {"norad_id": 66588, "name": "STARLINK-36076", "group": "last-30-days", "lat": -42.944217467676296, "lon": 24.00070190381165, "alt_km": 446.8771355143235, "timestamp": "2025-12-25T22:42:15.706856+00:00", "meta": {"OBJECT_NAME": "STARLINK-36076", "OBJECT_ID": "2025-270A", "EPOCH": "2025-12-25T15:19:22.836864", "MEAN_MOTION": 15.40737993, "ECCENTRICITY": 5.25e-05, "INCLINATION": 42.9959, "RA_OF_ASC_NODE": 118.4597, "ARG_OF_PERICENTER": 283.3048, "MEAN_ANOMALY": 76.775, "EPHEMERIS_TYPE": 0, "CLASSIFICATION_TYPE": "U", "NORAD_CAT_ID": 66588, "ELEMENT_SET_NO": 999, "REV_AT_EPOCH": 633, "BSTAR": 0.0010964, "MEAN_MOTION_DOT": 0.00045829, "MEAN_MOTION_DDOT": 0}, "tle": {"line1": "1 66588U 25270A   25359.63845876  .00045829  00000+0  10964-2 0  9999", "line2": "2 66588  42.9959 118.4597 0000525 283.3048  76.7750 15.40737993  6330"}}, "geometry": {"type": "Point", "coordinates": [24.00070190381165, -42.944217467676296]}}, {"type": "Feature", "properties": {"norad_id": 66589, "name": "STARLINK-35447", "group": "last-30-days", "lat": 5.084687682790799, "lon": 121.92360350123701, "alt_km": 443.3174843850229, "timestamp": "2025-12-25T22:42:15.706867+00:00", "meta": {"OBJECT_NAME": "STARLINK-35447", "OBJECT_ID": "2025-270B", "EPOCH": "2025-12-25T14:53:33.760896", "MEAN_MOTION": 15.4069884, "ECCENTRICITY": 0.0001173, "INCLINATION": 43.0008, "RA_OF_ASC_NODE": 118.3206, "ARG_OF_PERICENTER": 257.0782, "MEAN_ANOMALY": 102.9943, "EPHEMERIS_TYPE": 0, "CLASSIFICATION_TYPE": "U", "NORAD_CAT_ID": 66589, "ELEMENT_SET_NO": 999, "REV_AT_EPOCH": 644, "BSTAR": 0.00080611, "MEAN_MOTION_DOT": 0.00033516, "MEAN_MOTION_DDOT": 0}, "tle": {"line1": "1 66589U 25270B   25359.62052964  .00033516  00000+0  80611-3 0  9994", "line2": "2 66589  43.0008 118.3206 0001173 257.0782 102.9943 15.40698840  6442"}}, "geometry": {"type": "Point", "coordinates": [121.92360350123701, 5.084687682790799]}}, {"type": "Feature", "properties": {"norad_id": 66590, "name": "STARLINK-35429", "group": "last-30-days", "lat": 42.8086348413836, "lon": -147.4638648258148, "alt_km": 438.21025988313977, "timestamp": "2025-12-25T22:42:15.706878+00:00", "meta": {"OBJECT_NAME": "STARLINK-35429", "OBJECT_ID": "2025-270C", "EPOCH": "2025-12-25T17:37:41.589696", "MEAN_MOTION": 15.40721997, "ECCENTRICITY": 0.0001639, "INCLINATION": 43.002, "RA_OF_ASC_NODE": 117.4547, "ARG_OF_PERICENTER": 273.6487, "MEAN_ANOMALY": 86.4182, "EPHEMERIS_TYPE": 0, "CLASSIFICATION_TYPE": "U", "NORAD_CAT_ID": 66590, "ELEMENT_SET_NO": 999, "REV_AT_EPOCH": 646, "BSTAR": 0.0017332, "MEAN_MOTION_DOT": 0.00072845, "MEAN_MOTION_DDOT": 0}, "tle": {"line1": "1 66590U 25270C   25359.73450914  .00072845  00000+0  17332-2 0  9992", "line2": "2 66590  43.0020 117.4547 0001639 273.6487  86.4182 15.40721997  6462"}}, "geometry": {"type": "Point", "coordinates": [-147.4638648258148, 42.8086348413836]}}, {"type": "Feature", "properties": {"norad_id": 66591, "name": "STARLINK-36058", "group": "last-30-days", "lat": -1.198122704777329, "lon": -62.69234946028773, "alt_km": 443.7782550976308, "timestamp": "2025-12-25T22:42:15.706887+00:00", "meta": {"OBJECT_NAME": "STARLINK-36058", "OBJECT_ID": "2025-270D", "EPOCH": "2025-12-25T17:15:06.627744", "MEAN_MOTION": 15.40713232, "ECCENTRICITY": 0.0001599, "INCLINATION": 43.0013, "RA_OF_ASC_NODE": 117.3312, "ARG_OF_PERICENTER": 265.6343, "MEAN_ANOMALY": 94.4331, "EPHEMERIS_TYPE": 0, "CLASSIFICATION_TYPE": "U", "NORAD_CAT_ID": 66591, "ELEMENT_SET_NO": 999, "REV_AT_EPOCH": 635, "BSTAR": 0.0012052, "MEAN_MOTION_DOT": 0.00050395, "MEAN_MOTION_DDOT": 0}, "tle": {"line1": "1 66591U 25270D   25359.71882671  .00050395  00000+0  12052-2 0  9990", "line2": "2 66591  43.0013 117.3312 0001599 265.6343  94.4331 15.40713232  6357"}}, "geometry": {"type": "Point", "coordinates": [-62.69234946028773, -1.198122704777329]}}, {"type": "Feature", "properties": {"norad_id": 66592, "name": "STARLINK-36066", "group": "last-30-days", "lat": -27.306630822774427, "lon": 82.92007734584139, "alt_km": 445.63621800318197, "timestamp": "2025-12-25T22:42:15.706897+00:00", "meta": {"OBJECT_NAME": "STARLINK-36066", "OBJECT_ID": "2025-270E", "EPOCH": "2025-12-25T16:39:49.375872", "MEAN_MOTION": 15.40707588, "ECCENTRICITY": 0.0001628, "INCLINATION": 42.9987, "RA_OF_ASC_NODE": 118.0173, "ARG_OF_PERICENTER": 278.605, "MEAN_ANOMALY": 81.4622, "EPHEMERIS_TYPE": 0, "CLASSIFICATION_TYPE": "U", "NORAD_CAT_ID": 66592, "ELEMENT_SET_NO": 999, "REV_AT_EPOCH": 624, "BSTAR": 0.00046998, "MEAN_MOTION_DOT": 0.00019383, "MEAN_MOTION_DDOT": 0}, "tle": {"line1": "1 66592U 25270E   25359.69432148  .00019383  00000+0  46998-3 0  9997", "line2": "2 66592  42.9987 118.0173 0001628 278.6050  81.4622 15.40707588  6245"}}, "geometry": {"type": "Point", "coordinates": [82.92007734584139, -27.306630822774427]}}, {"type": "Feature", "properties": {"norad_id": 66593, "name": "STARLINK-36031", "group": "last-30-days", "lat": 28.713607281927917, "lon": 152.35564635079595, "alt_km": 440.46036980878944, "timestamp": "2025-12-25T22:42:15.706909+00:00", "meta": {"OBJECT_NAME": "STARLINK-36031", "OBJECT_ID": "2025-270F", "EPOCH": "2025-12-25T17:50:35.503872", "MEAN_MOTION": 15.40707259, "ECCENTRICITY": 0.0001878, "INCLINATION": 43.0021, "RA_OF_ASC_NODE": 117.5214, "ARG_OF_PERICENTER": 259.4699, "MEAN_ANOMALY": 100.5946, "EPHEMERIS_TYPE": 0, "CLASSIFICATION_TYPE": "U", "NORAD_CAT_ID": 66593, "ELEMENT_SET_NO": 999, "REV_AT_EPOCH": 635, "BSTAR": 0.00071243, "MEAN_MOTION_DOT": 0.00029579, "MEAN_MOTION_DDOT": 0}, "tle": {"line1": "1 66593U 25270F   25359.74346648  .00029579  00000+0  71243-3 0  9992", "line2": "2 66593  43.0021 117.5214 0001878 259.4699 100.5946 15.40707259  6359"}}, "geometry": {"type": "Point", "coordinates": [152.35564635079595, 28.713607281927917]}}, {"type": "Feature", "properties": {"norad_id": 66594, "name": "STARLINK-36032", "group": "last-30-days", "lat": 23.356229994798294, "lon": -91.49520654851479, "alt_km": 440.55315123131277, "timestamp": "2025-12-25T22:42:15.706920+00:00", "meta": {"OBJECT_NAME": "STARLINK-36032", "OBJECT_ID": "2025-270G", "EPOCH": "2025-12-25T17:24:47.765376", "MEAN_MOTION": 15.40743398, "ECCENTRICITY": 5.93e-05, "INCLINATION": 42.9988, "RA_OF_ASC_NODE": 117.3844, "ARG_OF_PERICENTER": 314.5703, "MEAN_ANOMALY": 45.5105, "EPHEMERIS_TYPE": 0, "CLASSIFICATION_TYPE": "U", "NORAD_CAT_ID": 66594, "ELEMENT_SET_NO": 999, "REV_AT_EPOCH": 616, "BSTAR": 0.0011846, "MEAN_MOTION_DOT": 0.00049574, "MEAN_MOTION_DDOT": 0}, "tle": {"line1": "1 66594U 25270G   25359.72555284  .00049574  00000+0  11846-2 0  9998", "line2": "2 66594  42.9988 117.3844 0000593 314.5703  45.5105 15.40743398  6167"}}, "geometry": {"type": "Point", "coordinates": [-91.49520654851479, 23.356229994798294]}}]}